CCSDS_OMM_VERS = 2.0
CREATION_DATE  = 
ORIGINATOR     = 

OBJECT_NAME    = STARLINK-37069
OBJECT_ID      = 2026-049S
CENTER_NAME    = EARTH
REF_FRAME      = TEME
TIME_SYSTEM    = UTC
MEAN_ELEMENT_THEORY = SGP/SGP4

EPOCH          = 2026-03-24T06:00:02.000160
MEAN_MOTION    = 15.85812514
ECCENTRICITY   = .00015925
INCLINATION    = 97.2760
RA_OF_ASC_NODE = 103.1954
ARG_OF_PERICENTER = 84.4520
MEAN_ANOMALY   = 119.2317

EPHEMERIS_TYPE = 0
CLASSIFICATION_TYPE = U
NORAD_CAT_ID   = 68158
ELEMENT_SET_NO = 999
REV_AT_EPOCH   = 296
BSTAR          = -.96652796E-2
MEAN_MOTION_DOT = -.2031164E-1
MEAN_MOTION_DDOT = 0

CCSDS_OMM_VERS = 2.0
CREATION_DATE  = 
ORIGINATOR     = 

OBJECT_NAME    = STARLINK-37053
OBJECT_ID      = 2026-049T
CENTER_NAME    = EARTH
REF_FRAME      = TEME
TIME_SYSTEM    = UTC
MEAN_ELEMENT_THEORY = SGP/SGP4

EPOCH          = 2026-03-24T06:00:02.000160
MEAN_MOTION    = 15.85910684
ECCENTRICITY   = .00015124
INCLINATION    = 97.2759
RA_OF_ASC_NODE = 103.1968
ARG_OF_PERICENTER = 91.3879
MEAN_ANOMALY   = 116.1860

EPHEMERIS_TYPE = 0
CLASSIFICATION_TYPE = U
NORAD_CAT_ID   = 68159
ELEMENT_SET_NO = 999
REV_AT_EPOCH   = 296
BSTAR          = -.96227704E-2
MEAN_MOTION_DOT = -.2031741E-1
MEAN_MOTION_DDOT = 0

CCSDS_OMM_VERS = 2.0
CREATION_DATE  = 
ORIGINATOR     = 

OBJECT_NAME    = STARLINK-36306
OBJECT_ID      = 2026-049U
CENTER_NAME    = EARTH
REF_FRAME      = TEME
TIME_SYSTEM    = UTC
MEAN_ELEMENT_THEORY = SGP/SGP4

EPOCH          = 2026-03-24T06:00:02.000160
MEAN_MOTION    = 15.86028518
ECCENTRICITY   = .00015592
INCLINATION    = 97.2752
RA_OF_ASC_NODE = 103.1979
ARG_OF_PERICENTER = 96.6918
MEAN_ANOMALY   = 114.6876

EPHEMERIS_TYPE = 0
CLASSIFICATION_TYPE = U
NORAD_CAT_ID   = 68160
ELEMENT_SET_NO = 999
REV_AT_EPOCH   = 297
BSTAR          = -.95846005E-2
MEAN_MOTION_DOT = -.2034927E-1
MEAN_MOTION_DDOT = 0

CCSDS_OMM_VERS = 2.0
CREATION_DATE  = 
ORIGINATOR     = 

OBJECT_NAME    = STARLINK-37057
OBJECT_ID      = 2026-049V
CENTER_NAME    = EARTH
REF_FRAME      = TEME
TIME_SYSTEM    = UTC
MEAN_ELEMENT_THEORY = SGP/SGP4

EPOCH          = 2026-03-24T06:00:02.000160
MEAN_MOTION    = 15.85662946
ECCENTRICITY   = .00017381
INCLINATION    = 97.2758
RA_OF_ASC_NODE = 103.1935
ARG_OF_PERICENTER = 90.9738
MEAN_ANOMALY   = 109.0567

EPHEMERIS_TYPE = 0
CLASSIFICATION_TYPE = U
NORAD_CAT_ID   = 68161
ELEMENT_SET_NO = 999
REV_AT_EPOCH   = 296
BSTAR          = -.97600969E-2
MEAN_MOTION_DOT = -.2035679E-1
MEAN_MOTION_DDOT = 0

CCSDS_OMM_VERS = 2.0
CREATION_DATE  = 
ORIGINATOR     = 

OBJECT_NAME    = STARLINK-37013
OBJECT_ID      = 2026-049W
CENTER_NAME    = EARTH
REF_FRAME      = TEME
TIME_SYSTEM    = UTC
MEAN_ELEMENT_THEORY = SGP/SGP4

EPOCH          = 2026-03-24T06:00:02.000160
MEAN_MOTION    = 15.86307407
ECCENTRICITY   = .00016234
INCLINATION    = 97.2746
RA_OF_ASC_NODE = 103.2053
ARG_OF_PERICENTER = 88.2014
MEAN_ANOMALY   = 139.3289

EPHEMERIS_TYPE = 0
CLASSIFICATION_TYPE = U
NORAD_CAT_ID   = 68162
ELEMENT_SET_NO = 999
REV_AT_EPOCH   = 296
BSTAR          = -.96215141E-2
MEAN_MOTION_DOT = -.2065942E-1
MEAN_MOTION_DDOT = 0

CCSDS_OMM_VERS = 2.0
CREATION_DATE  = 
ORIGINATOR     = 

OBJECT_NAME    = STARLINK-36958
OBJECT_ID      = 2026-049X
CENTER_NAME    = EARTH
REF_FRAME      = TEME
TIME_SYSTEM    = UTC
MEAN_ELEMENT_THEORY = SGP/SGP4

EPOCH          = 2026-03-24T06:00:02.000160
MEAN_MOTION    = 15.86114334
ECCENTRICITY   = .00014818
INCLINATION    = 97.2750
RA_OF_ASC_NODE = 103.2025
ARG_OF_PERICENTER = 89.8223
MEAN_ANOMALY   = 129.8951

EPHEMERIS_TYPE = 0
CLASSIFICATION_TYPE = U
NORAD_CAT_ID   = 68163
ELEMENT_SET_NO = 999
REV_AT_EPOCH   = 296
BSTAR          = -.96431862E-2
MEAN_MOTION_DOT = -.2052977E-1
MEAN_MOTION_DDOT = 0

CCSDS_OMM_VERS = 2.0
CREATION_DATE  = 
ORIGINATOR     = 

OBJECT_NAME    = STARLINK-37002
OBJECT_ID      = 2026-049Y
CENTER_NAME    = EARTH
REF_FRAME      = TEME
TIME_SYSTEM    = UTC
MEAN_ELEMENT_THEORY = SGP/SGP4

EPOCH          = 2026-03-24T06:00:02.000160
MEAN_MOTION    = 15.86052621
ECCENTRICITY   = .00015863
INCLINATION    = 97.2756
RA_OF_ASC_NODE = 103.2006
ARG_OF_PERICENTER = 94.7682
MEAN_ANOMALY   = 120.8837

EPHEMERIS_TYPE = 0
CLASSIFICATION_TYPE = U
NORAD_CAT_ID   = 68164
ELEMENT_SET_NO = 999
REV_AT_EPOCH   = 296
BSTAR          = -.96459701E-2
MEAN_MOTION_DOT = -.2048278E-1
MEAN_MOTION_DDOT = 0

CCSDS_OMM_VERS = 2.0
CREATION_DATE  = 
ORIGINATOR     = 

OBJECT_NAME    = STARLINK-36971
OBJECT_ID      = 2026-049Z
CENTER_NAME    = EARTH
REF_FRAME      = TEME
TIME_SYSTEM    = UTC
MEAN_ELEMENT_THEORY = SGP/SGP4

EPOCH          = 2026-03-24T06:00:02.000160
MEAN_MOTION    = 15.86231868
ECCENTRICITY   = .00015678
INCLINATION    = 97.2746
RA_OF_ASC_NODE = 103.2042
ARG_OF_PERICENTER = 94.1249
MEAN_ANOMALY   = 129.4287

EPHEMERIS_TYPE = 0
CLASSIFICATION_TYPE = U
NORAD_CAT_ID   = 68165
ELEMENT_SET_NO = 999
REV_AT_EPOCH   = 296
BSTAR          = -.9667664E-2
MEAN_MOTION_DOT = -.2067794E-1
MEAN_MOTION_DDOT = 0

CCSDS_OMM_VERS = 2.0
CREATION_DATE  = 
ORIGINATOR     = 

OBJECT_NAME    = STARLINK-36273
OBJECT_ID      = 2026-049AA
CENTER_NAME    = EARTH
REF_FRAME      = TEME
TIME_SYSTEM    = UTC
MEAN_ELEMENT_THEORY = SGP/SGP4

EPOCH          = 2026-03-24T06:00:02.000160
MEAN_MOTION    = 15.86415147
ECCENTRICITY   = .00015703
INCLINATION    = 97.2747
RA_OF_ASC_NODE = 103.2077
ARG_OF_PERICENTER = 94.1213
MEAN_ANOMALY   = 137.2578

EPHEMERIS_TYPE = 0
CLASSIFICATION_TYPE = U
NORAD_CAT_ID   = 68166
ELEMENT_SET_NO = 999
REV_AT_EPOCH   = 297
BSTAR          = -.95941796E-2
MEAN_MOTION_DOT = -.2070224E-1
MEAN_MOTION_DDOT = 0

CCSDS_OMM_VERS = 2.0
CREATION_DATE  = 
ORIGINATOR     = 

OBJECT_NAME    = STARLINK-36969
OBJECT_ID      = 2026-050A
CENTER_NAME    = EARTH
REF_FRAME      = TEME
TIME_SYSTEM    = UTC
MEAN_ELEMENT_THEORY = SGP/SGP4

EPOCH          = 2026-03-24T06:00:02.000160
MEAN_MOTION    = 15.80892535
ECCENTRICITY   = .00006681
INCLINATION    = 53.1595
RA_OF_ASC_NODE = 208.8697
ARG_OF_PERICENTER = 80.4390
MEAN_ANOMALY   = 37.0585

EPHEMERIS_TYPE = 0
CLASSIFICATION_TYPE = U
NORAD_CAT_ID   = 68167
ELEMENT_SET_NO = 999
REV_AT_EPOCH   = 278
BSTAR          = -.14734696E-3
MEAN_MOTION_DOT = -.29705E-3
MEAN_MOTION_DDOT = 0

CCSDS_OMM_VERS = 2.0
CREATION_DATE  = 
ORIGINATOR     = 

OBJECT_NAME    = STARLINK-36984
OBJECT_ID      = 2026-050B
CENTER_NAME    = EARTH
REF_FRAME      = TEME
TIME_SYSTEM    = UTC
MEAN_ELEMENT_THEORY = SGP/SGP4

EPOCH          = 2026-03-24T06:00:02.000160
MEAN_MOTION    = 15.80886057
ECCENTRICITY   = .00011974
INCLINATION    = 53.1597
RA_OF_ASC_NODE = 208.8611
ARG_OF_PERICENTER = 72.3767
MEAN_ANOMALY   = 49.3886

EPHEMERIS_TYPE = 0
CLASSIFICATION_TYPE = U
NORAD_CAT_ID   = 68168
ELEMENT_SET_NO = 999
REV_AT_EPOCH   = 278
BSTAR          = .64581227E-4
MEAN_MOTION_DOT = .12072E-3
MEAN_MOTION_DDOT = 0

CCSDS_OMM_VERS = 2.0
CREATION_DATE  = 
ORIGINATOR     = 

OBJECT_NAME    = STARLINK-37077
OBJECT_ID      = 2026-050C
CENTER_NAME    = EARTH
REF_FRAME      = TEME
TIME_SYSTEM    = UTC
MEAN_ELEMENT_THEORY = SGP/SGP4

EPOCH          = 2026-03-24T06:00:02.000160
MEAN_MOTION    = 15.80883025
ECCENTRICITY   = .00010759
INCLINATION    = 53.1596
RA_OF_ASC_NODE = 208.8520
ARG_OF_PERICENTER = 115.3465
MEAN_ANOMALY   = 10.7047

EPHEMERIS_TYPE = 0
CLASSIFICATION_TYPE = U
NORAD_CAT_ID   = 68169
ELEMENT_SET_NO = 999
REV_AT_EPOCH   = 278
BSTAR          = -.48449591E-4
MEAN_MOTION_DOT = -.10254E-3
MEAN_MOTION_DDOT = 0

